SL-16 R/B               
1 22285U 92093B   25322.71588488  .00000074  00000+0  62474-4 0  9992
2 22285  71.0218 237.2239 0002354 142.4953 217.6335 14.15427862697458
COSMOS 2228             
1 22286U 92094A   25322.82205992  .00002783  00000+0  24166-3 0  9996
2 22286  82.5179 343.4196 0016865 319.2819  40.7141 14.96576397759479
SL-16 R/B               
1 22566U 93016B   25322.74527061  .00000356  00000+0  20734-3 0  9998
2 22566  71.0071  88.1956 0008758 141.9123 218.2621 14.15285234686473
COSMOS 2242             
1 22626U 93024A   25322.55707641  .00002848  00000+0  25143-3 0  9994
2 22626  82.5212  12.9557 0015371 323.3093  36.7075 14.95969656763777
SL-16 R/B               
1 22803U 93059B   25322.80476779  .00000010  00000+0  28747-4 0  9995
2 22803  70.9902 244.9559 0016533  11.2834 348.8657 14.17208863663825
ARIANE 40 R/B           
1 22830U 93061H   25322.66519417  .00000350  00000+0  14443-3 0  9993
2 22830  98.5108  28.6301 0009702 250.4909 109.5227 14.32779818678204
COSMOS 2278             
1 23087U 94023A   25322.70153359  .00000414  00000+0  24101-3 0  9994
2 23087  71.0553  47.3002 0009716 210.6542 149.4014 14.14344013629119
SL-16 R/B               
1 23088U 94023B   25322.37454095 -.00000142  00000+0 -48604-4 0  9994
2 23088  70.9989 304.6543 0001206 144.3829 215.7374 14.14991539630341
SL-16 R/B               
1 23343U 94074B   25322.88582031  .00000669  00000+0  96635-4 0  9991
2 23343  97.7233 353.1354 0005715 211.4607 321.7430 14.79251006670863
SL-16 R/B               
1 23405U 94077B   25322.68222101  .00000010  00000+0  29390-4 0  9994
2 23405  70.9826 226.0221 0004280 303.4927  56.5786 14.15547911600523
ARIANE 40+ R/B          
1 23561U 95021B   25322.70773404  .00000448  00000+0  15716-3 0  9998
2 23561  98.4681  30.5837 0007879 112.2678  42.8267 14.39669234603273
SL-16 R/B               
1 23705U 95058B   25322.68369469 -.00000213  00000+0 -84434-4 0  9993
2 23705  71.0228  53.3083 0014997 286.0573  73.8898 14.15475940552142
