CCSDS_OMM_VERS = 2.0
CREATION_DATE  = 
ORIGINATOR     = 

OBJECT_NAME    = SL-16 R/B
OBJECT_ID      = 1992-093B
CENTER_NAME    = EARTH
REF_FRAME      = TEME
TIME_SYSTEM    = UTC
MEAN_ELEMENT_THEORY = SGP/SGP4

EPOCH          = 2025-11-18T17:10:52.453632
MEAN_MOTION    = 14.15427862
ECCENTRICITY   = .0002354
INCLINATION    = 71.0218
RA_OF_ASC_NODE = 237.2239
ARG_OF_PERICENTER = 142.4953
MEAN_ANOMALY   = 217.6335

EPHEMERIS_TYPE = 0
CLASSIFICATION_TYPE = U
NORAD_CAT_ID   = 22285
ELEMENT_SET_NO = 999
REV_AT_EPOCH   = 69745
BSTAR          = .62474E-4
MEAN_MOTION_DOT = .74E-6
MEAN_MOTION_DDOT = 0

CCSDS_OMM_VERS = 2.0
CREATION_DATE  = 
ORIGINATOR     = 

OBJECT_NAME    = COSMOS 2228
OBJECT_ID      = 1992-094A
CENTER_NAME    = EARTH
REF_FRAME      = TEME
TIME_SYSTEM    = UTC
MEAN_ELEMENT_THEORY = SGP/SGP4

EPOCH          = 2025-11-18T19:43:45.977088
MEAN_MOTION    = 14.96576397
ECCENTRICITY   = .0016865
INCLINATION    = 82.5179
RA_OF_ASC_NODE = 343.4196
ARG_OF_PERICENTER = 319.2819
MEAN_ANOMALY   = 40.7141

EPHEMERIS_TYPE = 0
CLASSIFICATION_TYPE = U
NORAD_CAT_ID   = 22286
ELEMENT_SET_NO = 999
REV_AT_EPOCH   = 75947
BSTAR          = .24166E-3
MEAN_MOTION_DOT = .2783E-4
MEAN_MOTION_DDOT = 0

CCSDS_OMM_VERS = 2.0
CREATION_DATE  = 
ORIGINATOR     = 

OBJECT_NAME    = SL-16 R/B
OBJECT_ID      = 1993-016B
CENTER_NAME    = EARTH
REF_FRAME      = TEME
TIME_SYSTEM    = UTC
MEAN_ELEMENT_THEORY = SGP/SGP4

EPOCH          = 2025-11-18T17:53:11.380704
MEAN_MOTION    = 14.15285234
ECCENTRICITY   = .0008758
INCLINATION    = 71.0071
RA_OF_ASC_NODE = 88.1956
ARG_OF_PERICENTER = 141.9123
MEAN_ANOMALY   = 218.2621

EPHEMERIS_TYPE = 0
CLASSIFICATION_TYPE = U
NORAD_CAT_ID   = 22566
ELEMENT_SET_NO = 999
REV_AT_EPOCH   = 68647
BSTAR          = .20734E-3
MEAN_MOTION_DOT = .356E-5
MEAN_MOTION_DDOT = 0

CCSDS_OMM_VERS = 2.0
CREATION_DATE  = 
ORIGINATOR     = 

OBJECT_NAME    = COSMOS 2242
OBJECT_ID      = 1993-024A
CENTER_NAME    = EARTH
REF_FRAME      = TEME
TIME_SYSTEM    = UTC
MEAN_ELEMENT_THEORY = SGP/SGP4

EPOCH          = 2025-11-18T13:22:11.401824
MEAN_MOTION    = 14.95969656
ECCENTRICITY   = .0015371
INCLINATION    = 82.5212
RA_OF_ASC_NODE = 12.9557
ARG_OF_PERICENTER = 323.3093
MEAN_ANOMALY   = 36.7075

EPHEMERIS_TYPE = 0
CLASSIFICATION_TYPE = U
NORAD_CAT_ID   = 22626
ELEMENT_SET_NO = 999
REV_AT_EPOCH   = 76377
BSTAR          = .25143E-3
MEAN_MOTION_DOT = .2848E-4
MEAN_MOTION_DDOT = 0

CCSDS_OMM_VERS = 2.0
CREATION_DATE  = 
ORIGINATOR     = 

OBJECT_NAME    = SL-16 R/B
OBJECT_ID      = 1993-059B
CENTER_NAME    = EARTH
REF_FRAME      = TEME
TIME_SYSTEM    = UTC
MEAN_ELEMENT_THEORY = SGP/SGP4

EPOCH          = 2025-11-18T19:18:51.937056
MEAN_MOTION    = 14.17208863
ECCENTRICITY   = .0016533
INCLINATION    = 70.9902
RA_OF_ASC_NODE = 244.9559
ARG_OF_PERICENTER = 11.2834
MEAN_ANOMALY   = 348.8657

EPHEMERIS_TYPE = 0
CLASSIFICATION_TYPE = U
NORAD_CAT_ID   = 22803
ELEMENT_SET_NO = 999
REV_AT_EPOCH   = 66382
BSTAR          = .28747E-4
MEAN_MOTION_DOT = .1E-6
MEAN_MOTION_DDOT = 0

CCSDS_OMM_VERS = 2.0
CREATION_DATE  = 
ORIGINATOR     = 

OBJECT_NAME    = ARIANE 40 R/B
OBJECT_ID      = 1993-061H
CENTER_NAME    = EARTH
REF_FRAME      = TEME
TIME_SYSTEM    = UTC
MEAN_ELEMENT_THEORY = SGP/SGP4

EPOCH          = 2025-11-18T15:57:52.776288
MEAN_MOTION    = 14.32779818
ECCENTRICITY   = .0009702
INCLINATION    = 98.5108
RA_OF_ASC_NODE = 28.6301
ARG_OF_PERICENTER = 250.4909
MEAN_ANOMALY   = 109.5227

EPHEMERIS_TYPE = 0
CLASSIFICATION_TYPE = U
NORAD_CAT_ID   = 22830
ELEMENT_SET_NO = 999
REV_AT_EPOCH   = 67820
BSTAR          = .14443E-3
MEAN_MOTION_DOT = .35E-5
MEAN_MOTION_DDOT = 0

CCSDS_OMM_VERS = 2.0
CREATION_DATE  = 
ORIGINATOR     = 

OBJECT_NAME    = COSMOS 2278
OBJECT_ID      = 1994-023A
CENTER_NAME    = EARTH
REF_FRAME      = TEME
TIME_SYSTEM    = UTC
MEAN_ELEMENT_THEORY = SGP/SGP4

EPOCH          = 2025-11-18T16:50:12.502176
MEAN_MOTION    = 14.14344013
ECCENTRICITY   = .0009716
INCLINATION    = 71.0553
RA_OF_ASC_NODE = 47.3002
ARG_OF_PERICENTER = 210.6542
MEAN_ANOMALY   = 149.4014

EPHEMERIS_TYPE = 0
CLASSIFICATION_TYPE = U
NORAD_CAT_ID   = 23087
ELEMENT_SET_NO = 999
REV_AT_EPOCH   = 62911
BSTAR          = .24101E-3
MEAN_MOTION_DOT = .414E-5
MEAN_MOTION_DDOT = 0

CCSDS_OMM_VERS = 2.0
CREATION_DATE  = 
ORIGINATOR     = 

OBJECT_NAME    = SL-16 R/B
OBJECT_ID      = 1994-023B
CENTER_NAME    = EARTH
REF_FRAME      = TEME
TIME_SYSTEM    = UTC
MEAN_ELEMENT_THEORY = SGP/SGP4

EPOCH          = 2025-11-18T08:59:20.338080
MEAN_MOTION    = 14.14991539
ECCENTRICITY   = .0001206
INCLINATION    = 70.9989
RA_OF_ASC_NODE = 304.6543
ARG_OF_PERICENTER = 144.3829
MEAN_ANOMALY   = 215.7374

EPHEMERIS_TYPE = 0
CLASSIFICATION_TYPE = U
NORAD_CAT_ID   = 23088
ELEMENT_SET_NO = 999
REV_AT_EPOCH   = 63034
BSTAR          = -.48604E-4
MEAN_MOTION_DOT = -.142E-5
MEAN_MOTION_DDOT = 0

CCSDS_OMM_VERS = 2.0
CREATION_DATE  = 
ORIGINATOR     = 

OBJECT_NAME    = SL-16 R/B
OBJECT_ID      = 1994-074B
CENTER_NAME    = EARTH
REF_FRAME      = TEME
TIME_SYSTEM    = UTC
MEAN_ELEMENT_THEORY = SGP/SGP4

EPOCH          = 2025-11-18T21:15:34.874784
MEAN_MOTION    = 14.79251006
ECCENTRICITY   = .0005715
INCLINATION    = 97.7233
RA_OF_ASC_NODE = 353.1354
ARG_OF_PERICENTER = 211.4607
MEAN_ANOMALY   = 321.7430

EPHEMERIS_TYPE = 0
CLASSIFICATION_TYPE = U
NORAD_CAT_ID   = 23343
ELEMENT_SET_NO = 999
REV_AT_EPOCH   = 67086
BSTAR          = .96635E-4
MEAN_MOTION_DOT = .669E-5
MEAN_MOTION_DDOT = 0

CCSDS_OMM_VERS = 2.0
CREATION_DATE  = 
ORIGINATOR     = 

OBJECT_NAME    = SL-16 R/B
OBJECT_ID      = 1994-077B
CENTER_NAME    = EARTH
REF_FRAME      = TEME
TIME_SYSTEM    = UTC
MEAN_ELEMENT_THEORY = SGP/SGP4

EPOCH          = 2025-11-18T16:22:23.895264
MEAN_MOTION    = 14.15547911
ECCENTRICITY   = .000428
INCLINATION    = 70.9826
RA_OF_ASC_NODE = 226.0221
ARG_OF_PERICENTER = 303.4927
MEAN_ANOMALY   = 56.5786

EPHEMERIS_TYPE = 0
CLASSIFICATION_TYPE = U
NORAD_CAT_ID   = 23405
ELEMENT_SET_NO = 999
REV_AT_EPOCH   = 60052
BSTAR          = .2939E-4
MEAN_MOTION_DOT = .1E-6
MEAN_MOTION_DDOT = 0

CCSDS_OMM_VERS = 2.0
CREATION_DATE  = 
ORIGINATOR     = 

OBJECT_NAME    = ARIANE 40+ R/B
OBJECT_ID      = 1995-021B
CENTER_NAME    = EARTH
REF_FRAME      = TEME
TIME_SYSTEM    = UTC
MEAN_ELEMENT_THEORY = SGP/SGP4

EPOCH          = 2025-11-18T16:59:08.221056
MEAN_MOTION    = 14.39669234
ECCENTRICITY   = .0007879
INCLINATION    = 98.4681
RA_OF_ASC_NODE = 30.5837
ARG_OF_PERICENTER = 112.2678
MEAN_ANOMALY   = 42.8267

EPHEMERIS_TYPE = 0
CLASSIFICATION_TYPE = U
NORAD_CAT_ID   = 23561
ELEMENT_SET_NO = 999
REV_AT_EPOCH   = 60327
BSTAR          = .15716E-3
MEAN_MOTION_DOT = .448E-5
MEAN_MOTION_DDOT = 0

CCSDS_OMM_VERS = 2.0
CREATION_DATE  = 
ORIGINATOR     = 

OBJECT_NAME    = SL-16 R/B
OBJECT_ID      = 1995-058B
CENTER_NAME    = EARTH
REF_FRAME      = TEME
TIME_SYSTEM    = UTC
MEAN_ELEMENT_THEORY = SGP/SGP4

EPOCH          = 2025-11-18T16:24:31.221216
MEAN_MOTION    = 14.15475940
ECCENTRICITY   = .0014997
INCLINATION    = 71.0228
RA_OF_ASC_NODE = 53.3083
ARG_OF_PERICENTER = 286.0573
MEAN_ANOMALY   = 73.8898

EPHEMERIS_TYPE = 0
CLASSIFICATION_TYPE = U
NORAD_CAT_ID   = 23705
ELEMENT_SET_NO = 999
REV_AT_EPOCH   = 55214
BSTAR          = -.84434E-4
MEAN_MOTION_DOT = -.213E-5
MEAN_MOTION_DDOT = 0

